#aV2012  3 12  0  0  0.00000000     288 DD+AD WGS84 FIT  NGA
## 1679  86400.00000000   300.00000000 55998 0.0000000000000
+   32     1  2  3  4  5  6  7  8  9 10 11 12 13 14 15 16 17
+         18 19 20 21 22 23 24 25 26 27 28 29 30 31 32  0  0
+          0  0  0  0  0  0  0  0  0  0  0  0  0  0  0  0  0
+          0  0  0  0  0  0  0  0  0  0  0  0  0  0  0  0  0
+          0  0  0  0  0  0  0  0  0  0  0  0  0  0  0  0  0
++         2  2  2  2  2  2  2  2  2  2  2  2  2  2  2  2  2
++         2  2  2  2  2  2  2  2  2  2  2  2  2  2  2  0  0
++         0  0  0  0  0  0  0  0  0  0  0  0  0  0  0  0  0
++         0  0  0  0  0  0  0  0  0  0  0  0  0  0  0  0  0
++         0  0  0  0  0  0  0  0  0  0  0  0  0  0  0  0  0
%c cc cc ccc ccc cccc cccc cccc cccc ccccc ccccc ccccc ccccc
%c cc cc ccc ccc cccc cccc cccc cccc ccccc ccccc ccccc ccccc
%f  0.0000000  0.000000000  0.00000000000  0.000000000000000
%f  0.0000000  0.000000000  0.00000000000  0.000000000000000
%i    0    0    0    0      0      0      0      0         0
%i    0    0    0    0      0      0      0      0         0
/*      NGA, ST. LOUIS,MO.                                  
/*   EPHEMERIS COMPUTED FROM  1 DAYS OF DATA
/*   EPOCHA SMOOTHER  
/* CCCCCCCCCCCCCCCCCCCCCCCCCCCCCCCCCCCCCCCCCCCCCCCCCCCCCCCCC
*  2012  3 12  1 40  0.00000000                                                 
P  1  -1250.435066 -15443.797600 -21582.426667    230.657512                    
V  1  26193.407590  -7979.837924   4215.182124      0.074532                    
P  2 -20717.934220  13685.779261   8790.806930    382.441849                    
V  2 -11761.860535    148.423853 -28799.099904      0.014905                    
P  3  10580.522806 -20938.621187  11720.649686     21.124705                    
V  3   2098.765670  16006.058213  25977.842228      0.051247                    
P  4 -25837.054821   6677.636667  -1887.293375    120.117202                    
V  4   1025.617377  -3707.895734 -30918.985269      0.114969                    
P  5  -9489.511235  12174.104849  21584.560360   -292.716083                    
V  5 -20429.779853 -18420.189721   1528.765340     -0.042935                    
P  6  13895.696622 -16941.727721  14942.380148     31.880516                    
V  6   -398.134775  19111.055433  22516.768500      0.002396                    
P  7 -16038.322807  -8859.691175  19337.291034     63.681746                    
V  7  23082.673498  -7931.613954  15288.349988      0.029509                    
P  8 -24645.594931  -1731.468941  10552.468707      0.788612                    
V  8  12579.846770  -3678.289832  28396.592077      0.001040                    
P  9  -3290.017030  16064.305801 -21451.740388    144.143497                    
V  9 -24763.840558   7581.563814   9700.749198      0.025389                    
P 10 -21222.566054  -5229.148689  15109.356376    -31.936444                    
V 10 -12615.973876 -15036.315032 -22159.417051     -0.013096                    
P 11   3647.426908 -19584.152449 -17804.413767   -240.751006                    
V 11  20183.499418  -9838.341617  15610.351097     -0.036489                    
P 12   6801.175813  20749.815932 -15244.279834     57.330149                    
V 12 -14934.566327 -12249.617950 -23143.917839      0.021354                    
P 13  -7584.059778 -17013.176968  18755.240221    220.007671                    
V 13   8418.751533 -22594.360930 -17042.202650     -0.022112                    
P 14  15545.873795  -2467.503354 -21194.017535    196.770462                    
V 14  -6997.097883  26392.108973  -8270.251818      0.012206                    
P 15  -2733.933643  26085.825391  -3398.535908    -92.100246                    
V 15  -4211.418238   3582.706509  31165.920077      0.003320                    
P 16  10144.316798 -10796.916758  22054.257980   -227.018368                    
V 16  19906.712125  19573.989373    729.990218     -0.015448                    
P 17 -15289.549597   -735.178911 -21514.989812    143.227639                    
V 17   6532.266105 -26968.369299  -3925.047041     -0.025663                    
P 18  20213.519941  17438.902735  -1474.796024    185.720546                    
V 18   -719.554153   4088.644939  30756.127542      0.018181                    
P 19   7191.535954 -25326.748937  -1146.909823   -244.579812                    
V 19   3458.532995   -401.901583  31941.473326     -0.038145                    
P 20 -10584.228045 -21053.691117 -12487.244772     63.415910                    
V 20  13881.126862   7802.198595 -25179.360273     -0.001539                    
P 21  20224.979238   6732.764138  16665.954693   -210.044389                    
V 21 -18708.565408   7719.097942  19567.909888     -0.024941                    
P 22  21610.963423   5713.030654 -14258.118603    143.036212                    
V 22  11474.946470  14715.865110  22889.631450      0.001330                    
P 23  -2012.207688 -24034.243086  10728.485985    225.106448                    
V 23   5808.024731 -12713.565132 -27817.008584     -0.034890                    
P 24  19934.617881   2321.007940  17357.289479   -254.578546                    
V 24  15316.847156  16123.230919 -19443.906311      0.005399                    
P 25  17357.719181  19663.739720  -4391.629450     32.172399                    
V 25  -5792.986758  -1831.883892 -31218.354606      0.002497                    
P 26 -12475.244162  21467.203701   8248.951031   -141.553261                    
V 26   1153.372278 -11606.386668  30123.640015     -0.575717                    
P 27 -11037.302374  16107.448891 -17154.820380    365.825232                    
V 27 -22398.585830   6137.986115  19923.502733      0.039798                    
P 28 -21254.698323  -9662.908661 -12316.600999    121.628918                    
V 28 -10215.142495 -12989.121825  26413.524207      0.039628                    
P 29   7310.983472  18941.120272  17213.607084    292.878769                    
V 29  -7225.194821  20533.146295 -19560.859080      0.036582                    
P 30  17672.911657  -3574.526136  19151.764518    -79.567625                    
V 30  19252.546449  16136.408999 -14481.173893     -0.170589                    
P 31  25690.264291  -7206.932206   -575.617305    218.436071                    
V 31   -363.609404   2166.034466 -32026.382621      0.045123                    
P 32  -1924.991129 -20203.854129 -17153.842523   -419.088647                    
V 32  16112.010597  15152.110730 -18942.256073     -0.049202                    
EOF
